SCS-01 D                
1 63985U 25100D   26068.75607686  .00032471  00000+0  10528-2 0  9990
2 63985  97.3730 145.4097 0006346 266.2302  93.8214 15.31902149 45621
STARLINK-34067          
1 64115U 25110V   26068.28554357  .00020512  00000+0  70253-3 0  9996
2 64115  53.1615  28.4207 0001093  92.6170 267.4956 15.30210376 45827
